[Satellite]
VERSION=1.1
NAME=ABS-2
NICKNAME=ABS-2
TLE1=1 39508U 14006A   15052.37253773 -.00000110  00000-0  00000+0 0  9998
TLE2=2 39508   0.0525 277.1720 0002433  49.6009  33.1807  1.00272390  3880
